Store Name,Street,City,State,Zip Code
Huntsville Sam's Club,5651 Holmes Ave,Huntsville,AL,35816
Huntsville Sam's Club,2235 National Blvd,Huntsville,AL,35803
Florence Sam's Club,364 Cox Creek Pkwy,Florence,AL,35630
Birmingham Sam's Club,5940 Trussville Crossing Pkway,Birmingham,AL,35235
Hoover Sam's Club,3053 John Hawkins Pkwy,Hoover,AL,35244
Daphne Sam's Club,29683 Frederick Blvd,Daphne,AL,36526
Montgomery Sam's Club,1080 Eastern Blvd,Montgomery,AL,36117
Tuscaloosa Sam's Club,1401 Skyland Blvd E,Tuscaloosa,AL,35405
Auburn Sam's Club,2335 Bent Creek Road,Auburn,AL,36830
Dothan Sam's Club,3440 Ross Clark Cir,Dothan,AL,36303
Mobile Sam's Club,601 E I-65 Service Rd S,Mobile,AL,36606
Homewood Sam's Club,201 Lakeshore Pkwy,Homewood,AL,35209
Oxford Sam's Club,1900 Oxford Exchange Blvd,Oxford,AL,36203
Sam's Club Homeoffice,2101 Se Simple Savings Dr,Bentonville,AR,72712
Springdale Sam's Club,1517 Gene George Blvd,Springdale,AR,72762
Little Rock Sam's Club,900 S Bowman Rd,Little Rock,AR,72211
Fayetteville Sam's Club,3081 N Highway 112,Fayetteville,AR,72704
Hot Springs Sam's Club,1368 Higdon Ferry Road,Hot Springs,AR,71913
Ft. Smith Sam's Club,7700 Rogers Ave,Ft Smith,AR,72903
N. Little Rock Sam's Club,5600 Landers Rd,N Little Rock,AR,72117
Jonesboro Sam's Club,2405 S Caraway Rd,Jonesboro,AR,72401
Conway Sam's Club,1250 S Amity Rd,Conway,AR,72032
Bentonville Sam's Club,3500 Se Club Blvd,Bentonville,AR,72712
Bullhead City Sam's Club,600 Highway 95,Bullhead City,AZ,86429
Gilbert Sam's Club,1225 N Gilbert Rd,Gilbert,AZ,85234
Avondale Sam's Club,1459 N Dysart Rd,Avondale,AZ,85323
Surprise Sam's Club,16573 West Bell Road,Surprise,AZ,85374
Phoenix Sam's Club,8340 W Mcdowell Rd,Phoenix,AZ,85037
Tucson Sam's Club,4701 N Stone Ave,Tucson,AZ,85704
Yuma Sam's Club,1462 S Pacific Ave,Yuma,AZ,85365
Glendale Sam's Club,18501 N 83rd Ave,Glendale,AZ,85308
Flagstaff Sam's Club,1851 E Butler Ave,Flagstaff,AZ,86001
Phoenix Sam's Club,1525 W Bell Rd,Phoenix,AZ,85023
Chandler Sam's Club,700 N 54th St,Chandler,AZ,85226
Gilbert Sam's Club,2621 S Market Street,Gilbert,AZ,85295
San Bernardino Sam's Club,1055 Harriman Pl,San Bernardino,CA,92408
Roseville Sam's Club,904 Pleasant Grove Blvd,Roseville,CA,95678
Citrus Heights Sam's Club,7147 Greenback Ln,Citrus Heights,CA,95621
Glendora Sam's Club,1301 Lone Hill Ave,Glendora,CA,91740
Gardena Sam's Club,1399 Artesia Blvd,Gardena,CA,90248
Corona Sam's Club,1375 E Ontario Ave,Corona,CA,92881
South Gate Sam's Club,5871 Firestone Blvd,South Gate,CA,90280
Concord Sam's Club,1225 Concord Ave,Concord,CA,94520
La Habra Sam's Club,1390 S Beach Blvd,La Habra,CA,90631
Folsom Sam's Club,2495 Iron Point Rd 11,Folsom,CA,95630
Palm Desert Sam's Club,34220 Monterey Ave,Palm Desert,CA,92211
Ontario Sam's Club,951 N Milliken Ave,Ontario,CA,91764
Torrance Sam's Club,2601 Skypark Dr,Torrance,CA,90505
Palmdale Sam's Club,39940 10th St W,Palmdale,CA,93551
Fullerton Sam's Club,603 S Placentia Ave,Fullerton,CA,92831
Fountain Valley Sam's Club,17099 Brookhurst St,Fountain Valley,CA,92708
Vacaville Sam's Club,1500 Helen Power Dr,Vacaville,CA,95687
Chino Sam's Club,3951 Grand Ave,Chino,CA,91710
Murrieta Sam's Club,40500 Murrieta Hot Springs Rd,Murrieta,CA,92563
El Monte Sam's Club,4901 N Santa Anita Blvd,El Monte,CA,91731
Riverside Sam's Club,6363 Valley Springs Pkwy,Riverside,CA,92507
Long Beach Sam's Club,7480 Carson St,Long Beach,CA,90808
Sacramento Sam's Club,8250 Power Inn Rd,Sacramento,CA,95828
Santa Clarita Sam's Club,26468 Carl Boyer Dr,Santa Clarita,CA,91350
Bakersfield Sam's Club,5625 Gosford Rd,Bakersfield,CA,93313
Oxnard Sam's Club,2401 N Rose Ave,Oxnard,CA,93036
Fresno Sam's Club,7663 N Blackstone Ave,Fresno,CA,93720
San Diego Sam's Club,6336 College Grove Way,San Diego,CA,92115
Yuba City Sam's Club,900 N Walton Ave,Yuba City,CA,95993
Pueblo Sam's Club,412 Eagleridge Blvd,Pueblo,CO,81008
Colorado Springs Sam's Club,1850 E Woodmen Rd,Colorado Springs,CO,80920
Evans Sam's Club,3247 23rd Ave,Evans,CO,80620
Lone Tree Sam's Club,7817 Park Meadows Dr,Lone Tree,CO,80124
Thornton Sam's Club,9601 Grant St,Thornton,CO,80229
Loveland Sam's Club,1200 E Eisenhower Blvd,Loveland,CO,80537
Aurora Sam's Club,880 S Abilene St,Aurora,CO,80012
Ft. Collins Sam's Club,4700 Boardwalk Dr,Ft Collins,CO,80525
Denver Sam's Club,505 S Broadway,Denver,CO,80209
Castle Rock Sam's Club,5940 Promenade Pkwy,Castle Rock,CO,80108
Arvada Sam's Club,7370 W 52nd Ave,Arvada,CO,80002
Littleton Sam's Club,4827 S Wadsworth,Littleton,CO,80123
Grand Junction Sam's Club,1040 Independent Ave,Grand Junction,CO,81505
Fountain Sam's Club,4385 Venetucci Blvd,Fountain,CO,80906
Denver Sam's Club,7805 E 35th Ave,Denver,CO,80238
Longmont Sam's Club,1200 South Hover,Longmont,CO,80501
Aurora Sam's Club,6201 S Aurora Pkwy,Aurora,CO,80016
Newington Sam's Club,3465 Berlin Turnpike,Newington,CT,6111
Dover Sam's Club,1572 N Dupont Hwy,Dover,DE,19901
Vero Beach Sam's Club,5565 20th St,Vero Beach,FL,32966
Bradenton Sam's Club,5300 30th St E,Bradenton,FL,34203
Lakeland Sam's Club,4600 Us Hwy N 98,Lakeland,FL,33809
Ocala Sam's Club,3921 SW College Rd,Ocala,FL,34474
Panama City Sam's Club,1707 W 23rd St,Panama City,FL,32405
Sarasota Sam's Club,300 N Cattlemen Rd,Sarasota,FL,34232
Orlando Sam's Club,9498 S Orange Blossom Tr,Orlando,FL,32837
W. Palm Beach Sam's Club,4295 45th St,W Palm Beach,FL,33407
Port Charlotte Sam's Club,17700 Murdock Cir,Port Charlotte,FL,33948
Tampa Sam's Club,5135 S Dale Mabry Highway,Tampa,FL,33611
Orlando Sam's Club,11920 Narcoossee Rd,Orlando,FL,32832
Ft. Myers Sam's Club,5170 S Cleveland Ave,Ft Myers,FL,33907
Port St. Lucie Sam's Club,1750 Sw Gatlin Blvd,Port St Lucie,FL,34953
Tampa Sam's Club,15835 N Dale Mabry Hwy,Tampa,FL,33618
Pinellas Park Sam's Club,7001 Park Blvd,Pinellas Park,FL,33781
Jacksonville Sam's Club,10690 Beach Blvd,Jacksonville,FL,32246
Kissimmee Sam's Club,4763 W Irlo Bronson Mem Hwy,Kissimmee,FL,34746
Clearwater Sam's Club,2575 Gulf-To-Bay Blvd,Clearwater,FL,33765
Apopka Sam's Club,1500 S Orange Blossom Tr,Apopka,FL,32703
Coral Springs Sam's Club,950 NUniversityDr,Coral Springs,FL,33071
Sanford Sam's Club,1101 Rinehart Rd,Sanford,FL,32771
Riverview Sam's Club,10385 Big Bend Road,Riverview,FL,33578
Melbourne Sam's Club,4255 W New Haven Ave,Melbourne,FL,32904
Miami Sam's Club,8425 NW 13th Ter,Miami,FL,33126
Brandon Sam's Club,2021 Brandon BlvdW,Brandon,FL,33511
Brooksville Sam's Club,13360 Cortez Blvd,Brooksville,FL,34613
Cape Coral Sam's Club,301 Sw Pine Island Road,Cape Coral,FL,33991
Port St. Lucie Sam's Club,10900 S Us Hwy 1,Port St Lucie,FL,34952
Lakeland Sam's Club,3530 Lakeland Highlands Rd,Lakeland,FL,33803
Lady Lake Sam's Club,755 North Hwy 27/441,Lady Lake,FL,32159
Jacksonville Sam's Club,6373 Youngerman Cir,Jacksonville,FL,32244
Sunrise Sam's Club,13550 W Sunrise Blvd,Sunrise,FL,33323
Cocoa Sam's Club,450 Townsend Rd,Cocoa,FL,32926
Orlando Sam's Club,7810 W Colonial Dr,Orlando,FL,32818
Jacksonville Sam's Club,300 Busch Dr,Jacksonville,FL,32218
Naples Sam's Club,2550 Immokalee Rd,Naples,FL,34110
Daytona Beach Sam's Club,1460 Cornerstone Blvd,Daytona Beach,FL,32117
Ft.Walton Beach Sam's Club,740 N Beal Pkwy,FtWalton Beach,FL,32547
Gainesville Sam's Club,4001 Sw 30th Place,Gainesville,FL,32608
Miramar Sam's Club,1900 University Dr,Miramar,FL,33025
Tallahassee Sam's Club,3122 Dick Wilson Blvd,Tallahassee,FL,32301
New Port Richey Sam's Club,4330 Us Highway 19,New Port Richey,FL,34652
St Petersburg Sam's Club,1725 34th St N,St Petersburg,FL,33713
Pensacola Sam's Club,1250 Airport Blvd,Pensacola,FL,32504
Wesley Chapel Sam's Club,27727 State Rd 56,Wesley Chapel,FL,33544
Orlando Sam's Club,7701 E Colonial Dr,Orlando,FL,32807
Valdosta Sam's Club,450 Norman Dr,Valdosta,GA,31601
Woodstock Sam's Club,9464 Main St,Woodstock,GA,30188
Pooler Sam's Club,15 MIll Creek Cir,Pooler,GA,31322
Marietta Sam's Club,150 S Cobb Pkwy S,Marietta,GA,30060
Oakwood Sam's Club,3839 Mundy MIll Rd,Oakwood,GA,30566
Buford Sam's Club,3383 Buford Dr,Buford,GA,30519
Albany Sam's Club,1201 N Westover Blvd,Albany,GA,31707
Columbus Sam's Club,5448 A Whittlesey Blvd,Columbus,GA,31909
Atlanta Sam's Club,2901 A Clairmont Rd,Atlanta,GA,30329
Brunswick Sam's Club,10100 Canal Crossing,Brunswick,GA,31525
Bogart Sam's Club,4365 Atlanta Hwy,Bogart,GA,30606
Alpharetta Sam's Club,10600 Davis Dr,Alpharetta,GA,30009
Douglasville Sam's Club,6995 Concourse Pkwy,Douglasville,GA,30134
Rome Sam's Club,2550 Redmond Cir,Rome,GA,30165
Sharpsburg Sam's Club,310 Fisher Rd,Sharpsburg,GA,30277
Tucker Sam's Club,1940 Mountain Ind Blvd,Tucker,GA,30084
Savannah Sam's Club,1975 E Montgomery Cross Rd,Savannah,GA,31406
Augusta Sam's Club,596 Bobby Jones Expy,Augusta,GA,30907
Morrow Sam's Club,7325 Jonesboro Rd,Morrow,GA,30260
Duluth Sam's Club,3450 Steve Reynolds Blvd,Duluth,GA,30096
Hiram Sam's Club,4798 Jimmy Lee Smith Pkwy,Hiram,GA,30141
Snellville Sam's Club,1520 Scenic Hwy N,Snellville,GA,30078
Mcdonough Sam's Club,1765 Jonesboro Rd,Mcdonough,GA,30253
Macon Sam's Club,4701 Log Cabin Dr,Macon,GA,31204
Honolulu Sam's Club,750 Ke'eaumoku St,Honolulu,HI,96814
Pearl City Sam's Club,1000 Kamehameha Hwy,Pearl City,HI,96782
Dubuque Sam's Club,4400 Asbury Rd,Dubuque,IA,52002
Council Bluffs Sam's Club,3221 Manawa Sentre Dr,Council Bluffs,IA,51501
Ames Sam's Club,305 Airport Rd,Ames,IA,50010
Ankeny Sam's Club,4625 Se Delaware Ave,Ankeny,IA,50021
Des Moines Sam's Club,1101 73rd St,Des Moines,IA,50324
Davenport Sam's Club,3887 Elmore Ave,Davenport,IA,52807
Cedar Rapids Sam's Club,2605 Blairs Ferry NE,Cedar Rapids,IA,52402
Waterloo Sam's Club,210 E Tower Park Dr,Waterloo,IA,50701
Sioux City Sam's Club,4201 S York St,Sioux City,IA,51106
Idaho Falls Sam's Club,700 E 17th St,Idaho Falls,ID,83404
Springfield Sam's Club,2300 White Oaks Dr,Springfield,IL,62704
Des Plaines Sam's Club,101 W Oakton St,Des Plaines,IL,60018
Evanston Sam's Club,2450 Main St,Evanston,IL,60202
O'fallon Sam's Club,1350 W Hwy 50,O'fallon,IL,62269
Vernon Hills Sam's Club,335 North Milwaukee Ave,Vernon Hills,IL,60061
Quincy Sam's Club,700 N 54th Street,Quincy,IL,62305
Tinley Park Sam's Club,16100 Harlem Ave,Tinley Park,IL,60477
Crystal Lake Sam's Club,5670 NW Hwy,Crystal Lake,IL,60014
Peoria Sam's Club,4100 W Willow Knolls Dr,Peoria,IL,61615
Marion Sam's Club,2709 Walton Way,Marion,IL,62959
Normal Sam's Club,2151 Shepard Rd,Normal,IL,61761
Calumet City Sam's Club,603 River Oaks W,Calumet City,IL,60409
Decatur Sam's Club,4334 N Prospect,Decatur,IL,62526
Gurnee Sam's Club,6570 Grand Ave,Gurnee,IL,60031
Northlake Sam's Club,141 W North Ave,Northlake,IL,60164
Champaign Sam's Club,915 W Marketview Dr,Champaign,IL,61822
Rockford Sam's Club,7151 Walton St,Rockford,IL,61108
Joliet Sam's Club,321 S Larkin Ave,Joliet,IL,60436
Addison Sam's Club,1006 Rohlwing Rd,Addison,IL,60101
Glen Carbon Sam's Club,5 Illini Dr,Glen Carbon,IL,62034
Cicero Sam's Club,2601 S Cicero Ave,Cicero,IL,60804
Montgomery Sam's Club,1050 Ogden Ave,Montgomery,IL,60538
Hodgkins Sam's Club,9500 W Joliet Rd,Hodgkins,IL,60525
Elgin Sam's Club,1000 S Randall Rd,Elgin,IL,60123
Evergreen Park Sam's Club,9400 S Western Ave,Evergreen Park,IL,60805
Kokomo Sam's Club,1917 E Markland Ave,Kokomo,IN,46901
Indianapolis Sam's Club,7235 E 96th St,Indianapolis,IN,46250
Fort Wayne Sam's Club,6736 Lima Rd,Fort Wayne,IN,46818
Indianapolis Sam's Club,5805 Rockville Rd,Indianapolis,IN,46224
Merrillville Sam's Club,3134 E 79th Ave,Merrillville,IN,46410
Mishawaka Sam's Club,120 Indian Ridge Blvd,Mishawaka,IN,46545
Lafayette Sam's Club,3819 South St,Lafayette,IN,47905
Columbus Sam's Club,2715 Merchants Mile,Columbus,IN,47201
Terre Haute Sam's Club,4350 S Us Hwy 41,Terre Haute,IN,47802
Bloomington Sam's Club,3205 W State Hwy 45,Bloomington,IN,47403
Clarksville Sam's Club,1301 Veterans Pkwy,Clarksville,IN,47129
Greenwood Sam's Club,1101 Windhorst Way,Greenwood,IN,46143
Evansville Sam's Club,6770 E Virginia St,Evansville,IN,47715
Lenexa Sam's Club,12200 W 95th St,Lenexa,KS,66215
Kansas City Sam's Club,10510 Parallel Pkwy,Kansas City,KS,66109
Wichita Sam's Club,6200 W Kellogg Dr Ste A,Wichita,KS,67209
Topeka Sam's Club,1401 Sw Wanamaker Rd,Topeka,KS,66604
Garden City Sam's Club,3010 Larue St,Garden City,KS,67846
Salina Sam's Club,2919 Market Place,Salina,KS,67401
Wichita Sam's Club,3084 N Maize Rd,Wichita,KS,67205
Wichita Sam's Club,3415 N Rock Rd,Wichita,KS,67226
Overland Park Sam's Club,8300 W 135th St,Overland Park,KS,66223
Bowling Green Sam's Club,3200 Ken Bale Blvd,Bowling Green,KY,42103
Louisville Sam's Club,6622 Preston Hwy,Louisville,KY,40219
Paducah Sam's Club,3550 James-Sanders Blvd,Paducah,KY,42001
Jeffersontown Sam's Club,1401 Alliant Ave,Jeffersontown,KY,40299
Elizabethtown Sam's Club,1500 Ring Road,Elizabethtown,KY,42701
Lexington Sam's Club,1063 New Circle Rd NE,Lexington,KY,40505
Florence Sam's Club,4949 Houston Rd,Florence,KY,41042
Owensboro Sam's Club,5240 Frederica St,Owensboro,KY,42301
Nicholasville Sam's Club,103 Bryant Dr,Nicholasville,KY,40356
Bossier City Sam's Club,2861 Beene Blvd,Bossier City,LA,71111
Slidell Sam's Club,181 Northshore Blvd,Slidell,LA,70460
Covington Sam's Club,69630 Stirling Blvd,Covington,LA,70433
Monroe Sam's Club,5400 Frontage Rd,Monroe,LA,71202
Shreveport Sam's Club,7400 Youree Dr,Shreveport,LA,71105
Lake Charles Sam's Club,2025 Sams Way,Lake Charles,LA,70601
Harvey Sam's Club,1527 Manhattan Blvd,Harvey,LA,70058
Kenner Sam's Club,455 31st St,Kenner,LA,70065
Baton Rouge Sam's Club,10444 North Mall Drive,Baton Rouge,LA,70809
Alexandria Sam's Club,3805 North Blvd,Alexandria,LA,71301
Houma Sam's Club,2174 Martin Luther King Blvd,Houma,LA,70360
Denham Springs Sam's Club,201 Bass Pro Blvd,Denham Springs,LA,70726
Metairie Sam's Club,3900 Airline Hwy,Metairie,LA,70001
Lafayette Sam's Club,3222 Ambassador Caffery Pkwy,Lafayette,LA,70506
Salisbury Sam's Club,2700 N Salisbury Blvd,Salisbury,MD,21801
Waldorf Sam's Club,2365 Crain Hwy,Waldorf,MD,20601
Annapolis Sam's Club,2100 Generals Hwy,Annapolis,MD,21401
Timonium Sam's Club,15 Texas Station Ct,Timonium,MD,21093
Laurel Sam's Club,3535 Russett Grn,Laurel,MD,20724
Gaithersburg Sam's Club,610 N Frederick Ave,Gaithersburg,MD,20877
Hagerstown Sam's Club,1700 Wesel Blvd,Hagerstown,MD,21740
Baltimore Sam's Club,6410 Petrie Way,Baltimore,MD,21237
Frederick Sam's Club,5604 Buckeystown Pike,Frederick,MD,21704
Catonsville Sam's Club,5702 Baltimore National Pike,Catonsville,MD,21228
Severn Sam's Club,424 George Clauss Blvd,Severn,MD,21144
Scarborough Sam's Club,440 Payne Rd,Scarborough,ME,4074
Augusta Sam's Club,45 Market Place Dr,Augusta,ME,4330
Bangor Sam's Club,47 Haskell Rd,Bangor,ME,4401
Kentwood Sam's Club,4326 28th StSE,Kentwood,MI,49512
Canton Sam's Club,39800 Ford Rd,Canton,MI,48187
Port Huron Sam's Club,1237 32nd St,Port Huron,MI,48060
Southfield Sam's Club,22500 Eight Mile Rd,Southfield,MI,48033
Saginaw Sam's Club,5656 Bay Rd,Saginaw,MI,48604
Holland Sam's Club,2190 N Park Dr,Holland,MI,49424
Battle Creek Sam's Club,12737 6 Mile Rd,Battle Creek,MI,49014
Jackson Sam's Club,3600 O'neill Dr,Jackson,MI,49202
Utica Sam's Club,45600 Utica Park Blvd,Utica,MI,48315
Grand Blanc Sam's Club,6160 S Saginaw Rd,Grand Blanc,MI,48439
Auburn Hills Sam's Club,4350 Joslyn Rd,Auburn Hills,MI,48326
Flint Sam's Club,4373 Corunna Rd,Flint,MI,48532
Muskegon Sam's Club,1707 E Sherman Blvd,Muskegon,MI,49444
Traverse City Sam's Club,2401 Us 31 S,Traverse City,MI,49684
Southgate Sam's Club,15700 Northline Rd,Southgate,MI,48195
Mt. Pleasant Sam's Club,4850 Encore Blvd,Mt Pleasant,MI,48858
Ypsilanti Sam's Club,5450 Carpenter Rd,Ypsilanti,MI,48197
Portage Sam's Club,7021 S Westnedge Ave,Portage,MI,49002
Comstock Park Sam's Club,3901 Alpine Ave NW,Comstock Park,MI,49321
Lansing Sam's Club,2925 Towne Centre Blvd,Lansing,MI,48912
Madison Heights Sam's Club,31020 John R Rd,Madison Heights,MI,48071
Roseville Sam's Club,31720 Gratiot Ave,Roseville,MI,48066
Novi Sam's Club,27300 Wixom Rd,Novi,MI,48374
Hermantown Sam's Club,4743 Maple Grove Rd,Hermantown,MN,55811
Apple Valley Sam's Club,14940 Florence Trl,Apple Valley,MN,55124
Rochester Sam's Club,3410 NW 55th St,Rochester,MN,55901
St. Cloud Sam's Club,207 County Road 120,St Cloud,MN,56303
Bloomington Sam's Club,200 W American Blvd,Bloomington,MN,55420
White Bear Lake Sam's Club,1850 Buerkle Rd,White Bear Lake,MN,55110
Maple Grove Sam's Club,16701 94th Ave N,Maple Grove,MN,55311
Eagan Sam's Club,3035 Denmark Ave,Eagan,MN,55121
Woodbury Sam's Club,9925 Hudson Rd,Woodbury,MN,55125
Fridley Sam's Club,8150 University Ave NE,Fridley,MN,55432
Mankato Sam's Club,1831 Madison Ave,Mankato,MN,56001
Shakopee Sam's Club,8201 Old Carriage Ct,Shakopee,MN,55379
Cape Girardeau Sam's Club,232 Shirley Dr,Cape Girardeau,MO,63701
Springfield Sam's Club,3660 E Sunshine St,Springfield,MO,65809
St. Louis Sam's Club,4512 Lemay Ferry Rd,St Louis,MO,63129
St. Joseph Sam's Club,5201 N Belt Hwy Ste A,St Joseph,MO,64506
Jefferson City Sam's Club,849 Stoneridge Pkwy,Jefferson City,MO,65109
Springfield Sam's Club,745 W El Camino Alto St,Springfield,MO,65810
Raymore Sam's Club,141 N Dean Ave,Raymore,MO,64083
Kansas City Sam's Club,5110 N Oak Trfy,Kansas City,MO,64118
Joplin Sam's Club,3536 Hammons Blvd,Joplin,MO,64804
Chesterfield Sam's Club,196 Thf Blvd,Chesterfield,MO,63005
Independence Sam's Club,4100 Bolger Rd,Independence,MO,64055
Saint Louis Sam's Club,10248 Big Bend Rd,Saint Louis,MO,63122
Wentzville Sam's Club,3055 Bear Creek Dr,Wentzville,MO,63385
Columbia Sam's Club,101 Conley Rd,Columbia,MO,65201
Maplewood Sam's Club,2100 Maplewood Common Dr,Maplewood,MO,63143
Saint Louis Sam's Club,10735 W Florissant Ave,Saint Louis,MO,63136
St. Charles Sam's Club,2855 Veterans Memorial Pkwy,St Charles,MO,63303
Kansas City Sam's Club,8130 N Church Rd,Kansas City,MO,64158
St. Louis Sam's Club,13455 Manchester Rd,St Louis,MO,63131
Hattiesburg Sam's Club,6080 Us Hwy 98,Hattiesburg,MS,39402
Gulfport Sam's Club,10431 Old Hwy 49,Gulfport,MS,39503
Meridian Sam's Club,715 Bonita Dr,Meridian,MS,39301
Madison Sam's Club,257 Grandview Blvd,Madison,MS,39110
Pearl Sam's Club,90 Bass Pro Drive,Pearl,MS,39208
Southaven Sam's Club,465 Goodman Rd E,Southaven,MS,38671
Tupelo Sam's Club,3833 N Gloster St,Tupelo,MS,38804
Great Falls Sam's Club,401 NWByp,Great Falls,MT,59404
Billings Sam's Club,4420 King Ave East,Billings,MT,59101
Charlotte Sam's Club,8909 Jw Clay Blvd,Charlotte,NC,28262
Pineville Sam's Club,11425 Carolina Place Pkwy,Pineville,NC,28134
Mooresville Sam's Club,646 River Hwy,Mooresville,NC,28117
Raleigh Sam's Club,3001 Calvary Dr,Raleigh,NC,27604
Jacksonville Sam's Club,1170 Western Blvd,Jacksonville,NC,28546
Durham Sam's Club,4005 Chapel Hill Blvd,Durham,NC,27707
Winston-Salem Sam's Club,930 Hanes Mall Blvd,Winston-Salem,NC,27103
Kannapolis Sam's Club,2421 Supercenter Dr NE,Kannapolis,NC,28083
Rocky Mount Sam's Club,300 Tarrytown Center,Rocky Mount,NC,27804
Fayetteville Sam's Club,1450 Skibo Rd,Fayetteville,NC,28303
Asheville Sam's Club,645 Patton Ave,Asheville,NC,28806
Winston-Salem Sam's Club,284 Summit Square Blvd,Winston-Salem,NC,27105
Hickory Sam's Club,2435 Hwy 70 SE,Hickory,NC,28602
Raleigh Sam's Club,2537 S Saunders St,Raleigh,NC,27603
Wake Forest Sam's Club,11460 Royall Cotton Rd,Wake Forest,NC,27587
Matthews Sam's Club,1801 Windsor Square Dr,Matthews,NC,28105
Greensboro Sam's Club,4418 W Wendover Ave,Greensboro,NC,27407
Goldsboro Sam's Club,2811 N Park Dr,Goldsboro,NC,27534
Gastonia Sam's Club,3540 E Franklin Blvd,Gastonia,NC,28056
Wilmington Sam's Club,412 S College Rd,Wilmington,NC,28403
Hendersonville Sam's Club,300 Highlands Square Dr,Hendersonville,NC,28792
Winterville Sam's Club,4240 Winterville Pkwy,Winterville,NC,28590
Grand Forks Sam's Club,2501 32nd Ave S,Grand Forks,ND,58201
Fargo Sam's Club,4831 13th Ave SW,Fargo,ND,58103
Bismarck Sam's Club,2821 Rock Island Pl,Bismarck,ND,58504
Omaha Sam's Club,13130 L St,Omaha,NE,68137
Grand Island Sam's Club,1510 N Diers Ave,Grand Island,NE,68803
Papillion Sam's Club,9851 S 71st Plaza,Papillion,NE,68133
Lincoln Sam's Club,8480 Andermatt Dr,Lincoln,NE,68526
Lincoln Sam's Club,4900 N 27th St,Lincoln,NE,68521
Hudson Sam's Club,7Wal-MartBlvd,Hudson,NH,3051
Concord Sam's Club,304 Sheep Davis Rd,Concord,NH,3301
Cinnaminson Sam's Club,2521 Rte 130 S,Cinnaminson,NJ,8077
Edison Sam's Club,883 Route 1,Edison,NJ,8817
Pleasantville Sam's Club,1025 Black Horse Pike,Pleasantville,NJ,8232
Linden Sam's Club,1900 East Linden Avenue,Linden,NJ,7036
Deptford Sam's Club,2000 Clements Bridge Rd,Deptford,NJ,8096
Freehold Sam's Club,320 W Main St,Freehold,NJ,7728
Secaucus Sam's Club,300 Park Place,Secaucus,NJ,7094
Williamstown Sam's Club,2080 N Blackhorse Pike,Williamstown,NJ,8094
Albuquerque Sam's Club,10600 Coors Blvd Baypass Nw,Albuquerque,NM,87114
Santa Fe Sam's Club,4201 Rodeo Rd,Santa Fe,NM,87507
Albuquerque Sam's Club,1421 N Renaissance Blvd NE,Albuquerque,NM,87107
Roswell Sam's Club,4400 N Main St,Roswell,NM,88201
Farmington Sam's Club,4500 E Main St,Farmington,NM,87402
Albuquerque Sam's Club,300 Eubank Blvd NE,Albuquerque,NM,87123
Las Cruces Sam's Club,2711 N Telshor Blvd,Las Cruces,NM,88011
Las Vegas Sam's Club,7100 W Arroyo Crossing Pwky,Las Vegas,NV,89113
Reno Sam's Club,4835 Kietzke Ln,Reno,NV,89509
Las Vegas Sam's Club,7175 Spring Mountain Rd,Las Vegas,NV,89117
Las Vegas Sam's Club,5101 S Pecos Rd,Las Vegas,NV,89120
Las Vegas Sam's Club,2650 East Craig Road,Las Vegas,NV,89030
Las Vegas Sam's Club,8080 W Tropical Pkwy,Las Vegas,NV,89149
Las Vegas Sam's Club,1910 East Serene,Las Vegas,NV,89123
Wallkill Sam's Club,300 N Galleria Dr,Wallkill,NY,10941
Vestal Sam's Club,2441 Vestal Pkywy E,Vestal,NY,13850
Kingston Sam's Club,801 Frank Sotille Blvd,Kingston,NY,12401
Cheektowaga Sam's Club,3735 Union Rd,Cheektowaga,NY,14225
Medford Sam's Club,2950 Horse Block Rd,Medford,NY,11763
Watertown Sam's Club,21341 Sam's Dr,Watertown,NY,13601
Latham Sam's Club,579 Troy/Schenectady Rd Ste 236,Latham,NY,12110
Niagara Falls Sam's Club,1580 Military Rd,Niagara Falls,NY,14304
Fishkill Sam's Club,56 West Merritt Blvd,Fishkill,NY,12524
Elmira Sam's Club,830 County Road 64 Ste 2,Elmira,NY,14903
Plattsburgh Sam's Club,7 Consumer Square,Plattsburgh,NY,12901
Elmsford Sam's Club,333 Sawmill River Rd,Elmsford,NY,10523
Dayton Sam's Club,6955 Miller Rd,Dayton,OH,45414
Dayton Sam's Club,1111 Miamisburg-Centerville Rd,Dayton,OH,45459
Brooklyn Sam's Club,10250 Brookpark Rd,Brooklyn,OH,44130
Cuyahoga Falls Sam's Club,1189 Buchholzer Blvd,Cuyahoga Falls,OH,44221
Toledo Sam's Club,1300 E Mall Dr,Toledo,OH,43528
Warren Sam's Club,1040 Niles Cortland Rd SE,Warren,OH,44484
Lima Sam's Club,1150 Greely Chapel Rd,Lima,OH,45804
Dublin Sam's Club,5870 Sawmill Rd,Dublin,OH,43017
Zanesville Sam's Club,3724 Northpointe Dr,Zanesville,OH,43701
Springdale Sam's Club,800 Kemper Commons Cir,Springdale,OH,45246
Canton Sam's Club,4790 Portage St,Canton,OH,44720
Sheffield Village Sam's Club,5225 Cobblestone Rd,Sheffield Village,OH,44035
Beavercreek Sam's Club,3446 Pentagon Blvd,Beavercreek,OH,45431
Youngstown Sam's Club,6361 South Ave,Youngstown,OH,44512
South Point Sam's Club,432 Private Dr 288,South Point,OH,45680
St. Clairsville Sam's Club,50555 Valley Plaza Dr,St Clairsville,OH,43950
Columbus Sam's Club,1755 Hilliard-Rome Rd,Columbus,OH,43026
Columbus Sam's Club,3950 Morse Rd,Columbus,OH,43219
Mentor Sam's Club,5600 Emerald Ct,Mentor,OH,44060
Sandusky Sam's Club,614 Crossings Rd,Sandusky,OH,44870
Reynoldsburg Sam's Club,2675 Taylor Rd,Reynoldsburg,OH,43068
Ontario Sam's Club,1070 N Lexington Springmill Rd,Ontario,OH,44906
Fairlawn Sam's Club,3750 W Market Street Unit J,Fairlawn,OH,44333
Cincinnati Sam's Club,5375 N Bend Rd,Cincinnati,OH,45247
Cincinnati Sam's Club,815 Clepper Ln,Cincinnati,OH,45245
Oakwood Village Sam's Club,23300 Broadway Ave,Oakwood Village,OH,44146
Chillicothe Sam's Club,1270 N Bridge St,Chillicothe,OH,45601
Owasso Sam's Club,12905 E 96th St N,Owasso,OK,74055
Norman Sam's Club,3400 W Main St,Norman,OK,73072
Oklahoma City Sam's Club,9000 NW Passage,Oklahoma City,OK,73132
Tulsa Sam's Club,6922 S Mingo Rd,Tulsa,OK,74133
Midwest City Sam's Club,6521 SE 29th St,Midwest City,OK,73110
Edmond Sam's Club,1117 West I-35 Frontage Road,Edmond,OK,73034
Tulsa Sam's Club,4420 S Sheridan,Tulsa,OK,74145
Oklahoma City Sam's Club,4101 North May Ave,Oklahoma City,OK,73112
Tulsa Sam's Club,7757 S Olympia Ave W,Tulsa,OK,74132
Oklahoma City Sam's Club,5510 SW 5th St,Oklahoma City,OK,73128
Moore Sam's Club,1705 South Broadway Ave,Moore,OK,73160
Lawton Sam's Club,802 NW Sheridan,Lawton,OK,73505
Oklahoma City Sam's Club,1900 W Memorial Rd,Oklahoma City,OK,73134
Pittsburgh (North Fayette) Sam's Club,249 Summit Park Dr,Pittsburgh (North Fayette),PA,15275
Langhorne Sam's Club,1717 E Lincoln Hwy,Langhorne,PA,19047
Muncy Sam's Club,611 Lycoming Mall Cir,Muncy,PA,17756
Temple Sam's Club,5314 Allentown Pike,Temple,PA,19560
Altoona Sam's Club,2500 W Plank Rd,Altoona,PA,16601
York Sam's Club,2801 E Market St,York,PA,17402
Allentown Sam's Club,901 Airport Center Drive,Allentown,PA,18109
Harrisburg Sam's Club,6781 Grayson Rd,Harrisburg,PA,17111
Erie Sam's Club,7200 Peach St,Erie,PA,16509
Washington Sam's Club,80 Trinity Point Dr,Washington,PA,15301
Greensburg Sam's Club,6211 Route 30,Greensburg,PA,15601
Mechanicsburg Sam's Club,6520 Carlisle Pike,Mechanicsburg,PA,17050
Willow Grove Sam's Club,3925 Welsh Rd,Willow Grove,PA,19090
Pittsburgh (Mt. Nebo) Sam's Club,289 Mount Nebo Pointe Rd,Pittsburgh Mt Nebo,PA,15237
Easton Sam's Club,3796 Easton Nazareth Hwy,Easton,PA,18045
Tarentum Sam's Club,2000 Village Center Dr,Tarentum,PA,15084
State College Sam's Club,381 Benner Pike,State College,PA,16801
West Mifflin Sam's Club,2251 Century Dr,West Mifflin,PA,15122
Monroeville Sam's Club,3621 William Penn Hwy,Monroeville,PA,15146
Dickson City Sam's Club,921 Viewmont Dr,Dickson City,PA,18519
Philadelphia Sam's Club,1000 Franklin Mills Cir,Philadelphia,PA,19154
Hanover Sam's Club,261 Wilson Ave,Hanover,PA,17331
Wilkes Barre Sam's Club,441 Wilkes-Barre Twnsp Blvd,Wilkes Barre,PA,18702
Butler Sam's Club,200 Moraine Pointe Plz,Butler,PA,16001
Ponce Sam's Club,2188 Eduardo Ruberte Carr 2,Ponce,PR,731
Hatillo Sam's Club,Carr 2 Km 842,Hatillo,PR,659
Bayamon Sam's Club,Plaza Del Parque 1500,Bayamon,PR,961
Caguas Sam's Club,Plaza Centro II Ave,Caguas,PR,725
San Juan Sam's Club,Pr-2 Km 22 Kennedy Ave,San Juan,PR,920
Carolina Sam's Club,Plaza Escorial,Carolina,PR,987
Mayaguez Sam's Club,Western Plza Carr 2 Km,Mayaguez,PR,680
Easley Sam's Club,309 Rolling Hills Cir,Easley,SC,29640
Anderson Sam's Club,3812 Liberty Hwy,Anderson,SC,29621
Rock Hill Sam's Club,2474 Cross Pointe Drive,Rock Hill,SC,29730
Myrtle Beach Sam's Club,1946 10th Ave N,Myrtle Beach,SC,29577
Aiken Sam's Club,220 Jefferson Davis Hwy,Aiken,SC,29801
Spartanburg Sam's Club,200 Peachwood Centre Dr,Spartanburg,SC,29301
Bluffton Sam's Club,14 Bluffton Rd,Bluffton,SC,29910
Columbia Sam's Club,733 Fashion Dr,Columbia,SC,29229
Florence Sam's Club,200 Beltline Dr,Florence,SC,29501
Greenville Sam's Club,1211 Woodruff Rd,Greenville,SC,29607
N.Charleston Sam's Club,4900 Centre Point Dr,NCharleston,SC,29418
Columbia Sam's Club,5426 Forest Dr,Columbia,SC,29206
Columbia Sam's Club,350 Harbison Blvd,Columbia,SC,29212
Rapid City Sam's Club,925 Eglin Street,Rapid City,SD,57701
Sioux Falls Sam's Club,3201 S Louise Ave,Sioux Falls,SD,57106
Jackson Sam's Club,2120 Emporium Dr,Jackson,TN,38305
Murfreesboro Sam's Club,125 John R Rice Blvd,Murfreesboro,TN,37129
Knoxville Sam's Club,2920 Knoxville Center Dr,Knoxville,TN,37924
Clarksville Sam's Club,3315 Gutherie Hwy,Clarksville,TN,37040
Chattanooga Sam's Club,6101 Lee Hwy,Chattanooga,TN,37421
Bartlett Sam's Club,8480 Us Highway 64,Bartlett,TN,38133
Franklin Sam's Club,3070 Mallory Lane,Franklin,TN,37067
Memphis Sam's Club,7475 Winchester Rd,Memphis,TN,38125
Nashville Sam's Club,1300 Antioch Pike,Nashville,TN,37211
Knoxville Sam's Club,8435 Walbrook Dr,Knoxville,TN,37923
Cookeville Sam's Club,1177 Sams St,Cookeville,TN,38506
Hendersonville Sam's Club,301 Indian Lake Blvd,Hendersonville,TN,37075
Memphis Sam's Club,2150 Covington Pike,Memphis,TN,38128
Johnson City Sam's Club,3060 Franklin Terrace Drive,Johnson City,TN,37604
Fort Worth Sam's Club,4400 Bryant Irvin Rd,Fort Worth,TX,76132
Burleson Sam's Club,600 N Burleson Blvd,Burleson,TX,76028
Plano Sam's Club,8621 Ohio Dr,Plano,TX,75024
Katy Sam's Club,20424 Katy Fwy,Katy,TX,77449
Plano Sam's Club,301 Coit Road,Plano,TX,75075
North Richland Hills Sam's Club,6375 NE Loop 820,North Richland Hills,TX,76180
Midland Sam's Club,1500 Tradewinds Blvd,Midland,TX,79706
El Paso Sam's Club,9498 Gateway Blvd N,El Paso,TX,79924
Austin Sam's Club,4970 W Highway 290,Austin,TX,78735
Dallas - Greenville Sam's Club,2218 Greenville Avenue,Dallas - Greenville,TX,75206
San Antonio Sam's Club,12349 I-35 N,San Antonio,TX,78233
College Station Sam's Club,1405 E Earl Rudder Fwy,College Station,TX,77845
San Antonio Sam's Club,5055 NW Loop 410,San Antonio,TX,78229
Stafford Sam's Club,12300 SW Fwy,Stafford,TX,77477
Harker Heights Sam's Club,600 W Central Texas Expressway,Harker Heights,TX,76548
Houston Sam's Club,11101 Fuqua St,Houston,TX,77089
Wichita Falls Sam's Club,3801 Kell Blvd,Wichita Falls,TX,76308
Austin Sam's Club,9900 S Interstate 35,Austin,TX,78748
Austin Sam's Club,10901 Lakeline Mall Dr,Austin,TX,78717
Houston Sam's Club,7950 FM 1960 W,Houston,TX,77070
Mansfield Sam's Club,1740 Highway 157 N,Mansfield,TX,76063
Mcallen Sam's Club,7601 N 10th Street,Mcallen,TX,78504
Lewisville Sam's Club,751 W Main St,Lewisville,TX,75067
Conroe Sam's Club,2000 Westview Blvd,Conroe,TX,77304
Dallas Sam's Club,9461 Webb Chapel Road,Dallas,TX,75220
Amarillo Sam's Club,8952 Westgate Pkwy,Amarillo,TX,79124
San Antonio Sam's Club,3239 Goliad Rd,San Antonio,TX,78223
Sherman Sam's Club,3333 Hwy 75 N,Sherman,TX,75090
Humble Sam's Club,9665 Fm 1960 Bypass Rd W,Humble,TX,77338
Garland Sam's Club,5150 N Garland Ave,Garland,TX,75040
San Antonio Sam's Club,5565 Dezavala Rd,San Antonio,TX,78249
Austin Sam's Club,9700 N Capital Of Texas Hwy,Austin,TX,78759
Dallas Sam's Club,5555 South Buckner Blvd,Dallas,TX,75228
El Paso Sam's Club,7970 N Mesa,El Paso,TX,79932
Westworth Village Sam's Club,6760 Westworth Blvd,Westworth Village,TX,76114
Houston Sam's Club,325 E Richey Rd,Houston,TX,77073
Grapevine Sam's Club,1701 W State Hwy 114,Grapevine,TX,76051
Houston Sam's Club,12205 West Rd,Houston,TX,77065
Odessa Sam's Club,4230 John Ben Shepperd Pkwy,Odessa,TX,79762
Lufkin Sam's Club,407 N Brentwood Dr,Lufkin,TX,75904
Shenandoah Sam's Club,19091 I 45 S,Shenandoah,TX,77385
Round Rock Sam's Club,130 Sundance Pkwy Ste 300,Round Rock,TX,78681
Irving Sam's Club,1213 Market Place Blvd,Irving,TX,75063
Keller Sam's Club,201 Golden Triangle Blvd,Keller,TX,76248
Victoria Sam's Club,9202 N Navarro St,Victoria,TX,77904
Houston Sam's Club,13600 East Fwy,Houston,TX,77015
Brownsville Sam's Club,3570 W Alton Gloor Blvd,Brownsville,TX,78520
Laredo Sam's Club,4810 San Bernardo Ave,Laredo,TX,78041
Tyler Sam's Club,2025 S SW Loop 323,Tyler,TX,75701
Houston Sam's Club,5310 S Rice Ave,Houston,TX,77081
San Antonio Sam's Club,2530 Marshall Rd,San Antonio,TX,78259
Dallas Sam's Club,6185 Retail Rd,Dallas,TX,75231
Amarillo Sam's Club,2201 Ross-Osage Dr,Amarillo,TX,79103
Temple Sam's Club,1414 Marland Wood Rd,Temple,TX,76502
La Marque Sam's Club,6614 Gulf Freeway,La Marque,TX,77568
San Marcos Sam's Club,1350 Leah Ave,San Marcos,TX,78666
Denton Sam's Club,2850 W University Drive,Denton,TX,76201
Mcallen Sam's Club,1400 E Jackson Ave,Mcallen,TX,78503
El Paso Sam's Club,7001 Gateway Blvd W,El Paso,TX,79925
Dallas Sam's Club,12000 Mccree Rd,Dallas,TX,75238
Sugar Land Sam's Club,351 Hwy 6,Sugar Land,TX,77478
San Angelo Sam's Club,5749 Sherwood Way,San Angelo,TX,76901
Abilene Sam's Club,5550 S Clack St,Abilene,TX,79606
Plano Sam's Club,1200 E Spring Creek Pkwy,Plano,TX,75074
Houston Sam's Club,10488 Old Katy Rd,Houston,TX,77043
El Paso Sam's Club,11360 Pellicano Dr,El Paso,TX,79936
Pearland Sam's Club,15800 S Freeway,Pearland,TX,77584
San Antonio Sam's Club,3150 SW Military Dr,San Antonio,TX,78224
Fort Worth Sam's Club,8351 Anderson Blvd,Fort Worth,TX,76120
Lubbock Sam's Club,6016 Marsha Sharp Fwy,Lubbock,TX,79407
Beaumont Sam's Club,1615 Interstate 10 S,Beaumont,TX,77701
Friendswood Sam's Club,155 W El Dorado Blvd,Friendswood,TX,77546
Waco Sam's Club,2301 E Waco Dr,Waco,TX,76705
Richmond Sam's Club,22402 Bellaire Blvd,Richmond,TX,77407
Harlingen Sam's Club,621 N Expressway 77,Harlingen,TX,78550
Texarkana Sam's Club,3610 St Michael Dr,Texarkana,TX,75503
Mckinney Sam's Club,1670 West University Dr,Mckinney,TX,75069
Corpus Christi Sam's Club,4833 South Padre Island Drive,Corpus Christi,TX,78411
Dallas Sam's Club,2900 W Wheatland Rd,Dallas,TX,75237
Addison Sam's Club,4062 Lyndon B Johnson Freeway,Addison,TX,75244
Longview Sam's Club,3310 N 4th St,Longview,TX,75605
Grand Prairie Sam's Club,2325 W Hwy I 20,Grand Prairie,TX,75052
Murray Sam's Club,6525 S State St,Murray,UT,84107
West Jordan Sam's Club,7571 South 3800 West,West Jordan,UT,84084
Logan Sam's Club,145 W Cache Valley Blvd,Logan,UT,84341
Layton Sam's Club,1055 W Hill Field Rd,Layton,UT,84041
Salt Lake City Sam's Club,1905 S 300 W,Salt Lake City,UT,84115
South Jordan Sam's Club,11278 S Jordan Gtwy,South Jordan,UT,84095
Provo Sam's Club,1313 S University Ave,Provo,UT,84601
Riverdale Sam's Club,4949 S 900 W,Riverdale,UT,84405
Chesapeake Sam's Club,1501 Sam's Cir,Chesapeake,VA,23320
Woodbridge Sam's Club,14050 Worth Ave,Woodbridge,VA,22192
Bristol Sam's Club,21483 Market Center,Bristol,VA,24202
Chesapeake Sam's Club,2444 Chesapeake Square Ring Rd,Chesapeake,VA,23321
Newport News Sam's Club,12407 Jefferson Ave,Newport News,VA,23602
Danville Sam's Club,215 Piedmont Place,Danville,VA,24541
Midlothian Sam's Club,901 Wal-Mart Way,Midlothian,VA,23113
Richmond Sam's Club,9440 W Broad St,Richmond,VA,23294
Bluefield Sam's Club,601 Commerce Dr,Bluefield,VA,24605
Roanoke Sam's Club,1455 Towne Square Blvd,Roanoke,VA,24012
Lynchburg Sam's Club,3912 Wards Rd,Lynchburg,VA,24502
Charlottesville Sam's Club,970 Hilton Heights Rd,Charlottesville,VA,22901
Colonial Heights Sam's Club,735 South Park Blvd,Colonial Heights,VA,23834
Virginia Beach Sam's Club,3345 Virginia Beach Blvd,Virginia Beach,VA,23452
Sterling Sam's Club,45425 Dulles Crossing Plz,Sterling,VA,20166
Eau Claire Sam's Club,4001 Gateway Dr,Eau Claire,WI,54701
Franklin Sam's Club,6705 S 27th St,Franklin,WI,53132
Waukesha Sam's Club,600 N Springdale Rd,Waukesha,WI,53186
Janesville Sam's Club,3900 Deerfield Dr,Janesville,WI,53546
Wausau Sam's Club,226200 Rib Mountain Dr,Wausau,WI,54401
Milwaukee Sam's Club,8050 N 124th St,Milwaukee,WI,53223
Appleton Sam's Club,1000 N Westhill Blvd,Appleton,WI,54914
Green Bay Sam's Club,2470 W Mason,Green Bay,WI,54303
Kenosha Sam's Club,3300 Brumback Blvd,Kenosha,WI,53144
Onalaska Sam's Club,1211 Crossing Meadows Dr,Onalaska,WI,54650
Vienna Sam's Club,1100 Grand Central Ave,Vienna,WV,26105
Clarksburg Sam's Club,200 Emily Dr,Clarksburg,WV,26301
Morgantown Sam's Club,5045 University Town Centre Dr,Morgantown,WV,26501
Beckley Sam's Club,1220 N Eisenhower Dr,Beckley,WV,25801
S. Charleston Sam's Club,2500 Mountaineer Blvd,S Charleston,WV,25309
Cheyenne Sam's Club,1948 Dell Range Blvd,Cheyenne,WY,82009
Casper Sam's Club,4600 E 2nd St,Casper,WY,82609
